STARLINK-1843
1 27133C 20088M   21325.12294499  .00001034  00000-0  69336-4 0  3251
2 27133  53.0329 137.7796 0001425  75.6565 315.1569 15.06384588    17
